{
  "norad_id": 67319,
  "name": "STARLINK-36470",
  "history": [
    {
      "epoch": "2026-03-28T16:41:09.602592Z",
      "apogee_km": 484.11487704247884,
      "perigee_km": 481.8688179029705,
      "latitude_deg": -1.562849348033023e-05,
      "longitude_deg": 141.6928669884637,
      "height_km": 482.5327430496982,
      "semi_major_axis_km": 6861.128847472724,
      "eccentricity": 0.00016368,
      "inclination_deg": 43.0023,
      "raan_deg": 218.0949,
      "arg_perigee_deg": 282.1444,
      "mean_anomaly_deg": 77.9224,
      "mean_motion_rev_day": 15.27599119
    },
    {
      "epoch": "2026-03-30T09:29:14.845344Z",
      "apogee_km": 483.964479710683,
      "perigee_km": 482.1859162847186,
      "latitude_deg": 3.1888788564226006e-05,
      "longitude_deg": -121.60678256341885,
      "height_km": 483.17839470190523,
      "semi_major_axis_km": 6861.212197997701,
      "eccentricity": 0.00012961,
      "inclination_deg": 43.0017,
      "raan_deg": 208.4927,
      "arg_perigee_deg": 248.4588,
      "mean_anomaly_deg": 111.6126,
      "mean_motion_rev_day": 15.27571283
    }
  ]
}